0 FENGYUN 1C DEB
1 30016U 99025MR  13282.53165924  .00001824  00000-0  62941-3 0  8759
2 30016 098.8526 014.9161 0094015 014.8636 049.6678 14.34667415351975
0 FENGYUN 1C DEB
1 30016U 99025MR  13284.20379620  .00001991  00000-0  68541-3 0  8763
2 30016 098.8529 016.6293 0093938 009.8911 045.9774 14.34671658352214
0 FENGYUN 1C DEB
1 30016U 99025MR  13285.82183448  .00001961  00000-0  67515-3 0  8771
2 30016 098.8526 018.2869 0093927 005.1531 122.8427 14.34675746352440
0 FENGYUN 1C DEB
1 30016U 99025MR  13287.20260662  .00002330  00000-0  79948-3 0  8784
2 30016 098.8530 019.7017 0093875 001.0702 054.3379 14.34679542352648
0 FENGYUN 1C DEB
1 30016U 99025MR  13288.24336308  .00003098  00000-0  10572-2 0  8790
2 30016 098.8532 020.7683 0093844 357.9745 029.7344 14.34686820352798
0 FENGYUN 1C DEB
1 30016U 99025MR  13289.51877294  .00002713  00000-0  92798-3 0  8801
2 30016 098.8534 022.0753 0093782 354.1664 137.1400 14.34693995352971
0 FENGYUN 1C DEB
1 30016U 99025MR  13290.56409142  .00002882  00000-0  98451-3 0  8811
2 30016 098.8532 023.1467 0093746 351.0784 136.1275 14.34698842353125
0 FENGYUN 1C DEB
1 30016U 99025MR  13292.09690081  .00002722  00000-0  93075-3 0  8826
2 30016 098.8528 024.7176 0093700 346.5031 133.0528 14.34704928353342
0 FENGYUN 1C DEB
1 30016U 99025MR  13293.20084671  .00002953  00000-0  10084-2 0  8837
2 30016 098.8525 025.8489 0093669 343.2088 074.9298 14.34709791353506
0 FENGYUN 1C DEB
1 30016U 99025MR  13294.75561735  .00003201  00000-0  10914-2 0  8849
2 30016 098.8521 027.4422 0093645 338.5662 185.3514 14.34718930353723
0 FENGYUN 1C DEB
1 30016U 99025MR  13295.79393699  .00003149  00000-0  10740-2 0  8855
2 30016 098.8519 028.5062 0093624 335.4781 148.3069 14.34723583353877
